ONEWEB-0035             
1 45143U 20008N   26077.29449284  .00000465  00000+0  12954-2 0  9998
2 45143  87.8786  54.3720 0002030  84.2840 275.8518 13.10375215296039
ONEWEB-0036             
1 45144U 20008P   26077.29813714  .00000591  00000+0  16695-2 0  9998
2 45144  87.8802  54.3456 0001643  81.9143 278.2170 13.09819073296465
ONEWEB-0038             
1 45145U 20008Q   26077.29941209 -.00000542  00000+0 -15661-2 0  9990
2 45145  87.8891  39.1335 0002752 119.6856 240.4546 13.11416027298413
ONEWEB-0039             
1 45146U 20008R   26077.19072522 -.00000619  00000+0 -18088-2 0  9994
2 45146  87.8796  54.3785 0001363  92.6649 267.4635 13.10372583296247
ONEWEB-0040             
1 45147U 20008S   26077.18408869 -.00000509  00000+0 -14951-2 0  9994
2 45147  87.8784  54.3953 0001852  87.6543 272.4797 13.10371610295943
ONEWEB-0043             
1 45149U 20008U   26077.18574558 -.00000625  00000+0 -18274-2 0  9996
2 45149  87.8789  54.3783 0001333  90.9081 269.2199 13.10370862296263
ONEWEB-0044             
1 45150U 20008V   26077.29032366  .00000007  00000+0 -17228-4 0  9999
2 45150  87.8802  54.3536 0001736  88.2092 271.9235 13.10372865296576
ONEWEB-0045             
1 45151U 20008W   26077.29420153 -.00000393  00000+0 -11441-2 0  9993
2 45151  87.8885  39.1212 0001790  83.9251 276.2080 13.11415000298498
ONEWEB-0047             
1 45152U 20008X   26076.97826289 -.00000058  00000+0 -20362-3 0  9999
2 45152  87.8791  54.4179 0002052  86.8252 273.3110 13.10376173296252
ONEWEB-0048             
1 45153U 20008Y   26076.97327834 -.00000342  00000+0 -10162-2 0  9994
2 45153  87.8785  54.4460 0001946  85.5605 274.5745 13.10375655295865
ONEWEB-0049             
1 45154U 20008Z   26076.97646370 -.00000188  00000+0 -57610-3 0  9992
2 45154  87.8787  54.4332 0001673  71.4794 288.6515 13.10375413296084
ONEWEB-0051             
1 45155U 20008AA  26077.29250211 -.00000334  00000+0 -97955-3 0  9993
2 45155  87.8884  39.1343 0001855  81.7798 278.3540 13.11415623299171
ONEWEB-0052             
1 45156U 20008AB  26076.98055209 -.00001987  00000+0 -57727-2 0  9996
2 45156  87.8802  54.4057 0001070  75.8461 284.2785 13.09867344295995
ONEWEB-0053             
1 45157U 20008AC  26076.95335641 -.00000562  00000+0 -16462-2 0  9994
2 45157  87.8781  54.4470 0001344  82.4856 277.6425 13.10372002295965
ONEWEB-0054             
1 45158U 20008AD  26077.29366072  .00000298  00000+0  81853-3 0  9996
2 45158  87.8799  54.3542 0001864  81.1857 278.9481 13.10375689296127
ONEWEB-0056             
1 45159U 20008AE  26077.19819779 -.00000559  00000+0 -16382-2 0  9999
2 45159  87.8795  54.3735 0001900  78.0954 282.0387 13.10374632296265
