[{"OBJECT_NAME":"ONEWEB-0035","OBJECT_ID":"2020-008N","EPOCH":"2026-03-18T07:04:04.181376","MEAN_MOTION":13.10375215,"ECCENTRICITY":0.00020307,"INCLINATION":87.8786,"RA_OF_ASC_NODE":54.372,"ARG_OF_PERICENTER":84.284,"MEAN_ANOMALY":275.8518,"EPHEMERIS_TYPE":0,"CLASSIFICATION_TYPE":"U","NORAD_CAT_ID":45143,"ELEMENT_SET_NO":999,"REV_AT_EPOCH":29603,"BSTAR":0.001295406,"MEAN_MOTION_DOT":4.65e-6,"MEAN_MOTION_DDOT":0},{"OBJECT_NAME":"ONEWEB-0036","OBJECT_ID":"2020-008P","EPOCH":"2026-03-18T07:09:19.048896","MEAN_MOTION":13.09819073,"ECCENTRICITY":0.00016433,"INCLINATION":87.8802,"RA_OF_ASC_NODE":54.3456,"ARG_OF_PERICENTER":81.9143,"MEAN_ANOMALY":278.217,"EPHEMERIS_TYPE":0,"CLASSIFICATION_TYPE":"U","NORAD_CAT_ID":45144,"ELEMENT_SET_NO":999,"REV_AT_EPOCH":29646,"BSTAR":0.0016695339,"MEAN_MOTION_DOT":5.91e-6,"MEAN_MOTION_DDOT":0},{"OBJECT_NAME":"ONEWEB-0038","OBJECT_ID":"2020-008Q","EPOCH":"2026-03-18T07:11:09.204576","MEAN_MOTION":13.11416027,"ECCENTRICITY":0.00027525,"INCLINATION":87.8891,"RA_OF_ASC_NODE":39.1335,"ARG_OF_PERICENTER":119.6856,"MEAN_ANOMALY":240.4546,"EPHEMERIS_TYPE":0,"CLASSIFICATION_TYPE":"U","NORAD_CAT_ID":45145,"ELEMENT_SET_NO":999,"REV_AT_EPOCH":29841,"BSTAR":-0.0015661365,"MEAN_MOTION_DOT":-5.42e-6,"MEAN_MOTION_DDOT":0},{"OBJECT_NAME":"ONEWEB-0039","OBJECT_ID":"2020-008R","EPOCH":"2026-03-18T04:34:38.659008","MEAN_MOTION":13.10372583,"ECCENTRICITY":0.00013631,"INCLINATION":87.8796,"RA_OF_ASC_NODE":54.3785,"ARG_OF_PERICENTER":92.6649,"MEAN_ANOMALY":267.4635,"EPHEMERIS_TYPE":0,"CLASSIFICATION_TYPE":"U","NORAD_CAT_ID":45146,"ELEMENT_SET_NO":999,"REV_AT_EPOCH":29624,"BSTAR":-0.0018088374,"MEAN_MOTION_DOT":-6.19e-6,"MEAN_MOTION_DDOT":0},{"OBJECT_NAME":"ONEWEB-0040","OBJECT_ID":"2020-008S","EPOCH":"2026-03-18T04:25:05.262816","MEAN_MOTION":13.1037161,"ECCENTRICITY":0.00018525,"INCLINATION":87.8784,"RA_OF_ASC_NODE":54.3953,"ARG_OF_PERICENTER":87.6543,"MEAN_ANOMALY":272.4797,"EPHEMERIS_TYPE":0,"CLASSIFICATION_TYPE":"U","NORAD_CAT_ID":45147,"ELEMENT_SET_NO":999,"REV_AT_EPOCH":29594,"BSTAR":-0.001495117,"MEAN_MOTION_DOT":-5.09e-6,"MEAN_MOTION_DDOT":0},{"OBJECT_NAME":"ONEWEB-0043","OBJECT_ID":"2020-008U","EPOCH":"2026-03-18T04:27:28.418112","MEAN_MOTION":13.10370862,"ECCENTRICITY":0.00013331,"INCLINATION":87.8789,"RA_OF_ASC_NODE":54.3783,"ARG_OF_PERICENTER":90.9081,"MEAN_ANOMALY":269.2199,"EPHEMERIS_TYPE":0,"CLASSIFICATION_TYPE":"U","NORAD_CAT_ID":45149,"ELEMENT_SET_NO":999,"REV_AT_EPOCH":29626,"BSTAR":-0.0018273552,"MEAN_MOTION_DOT":-6.25e-6,"MEAN_MOTION_DDOT":0},{"OBJECT_NAME":"ONEWEB-0044","OBJECT_ID":"2020-008V","EPOCH":"2026-03-18T06:58:03.964224","MEAN_MOTION":13.10372865,"ECCENTRICITY":0.00017364,"INCLINATION":87.8802,"RA_OF_ASC_NODE":54.3536,"ARG_OF_PERICENTER":88.2092,"MEAN_ANOMALY":271.9235,"EPHEMERIS_TYPE":0,"CLASSIFICATION_TYPE":"U","NORAD_CAT_ID":45150,"ELEMENT_SET_NO":999,"REV_AT_EPOCH":29657,"BSTAR":-1.7228307e-5,"MEAN_MOTION_DOT":7.0e-8,"MEAN_MOTION_DDOT":0},{"OBJECT_NAME":"ONEWEB-0045","OBJECT_ID":"2020-008W","EPOCH":"2026-03-18T07:03:39.012192","MEAN_MOTION":13.11415,"ECCENTRICITY":0.00017901,"INCLINATION":87.8885,"RA_OF_ASC_NODE":39.1212,"ARG_OF_PERICENTER":83.9251,"MEAN_ANOMALY":276.208,"EPHEMERIS_TYPE":0,"CLASSIFICATION_TYPE":"U","NORAD_CAT_ID":45151,"ELEMENT_SET_NO":999,"REV_AT_EPOCH":29849,"BSTAR":-0.0011440627,"MEAN_MOTION_DOT":-3.93e-6,"MEAN_MOTION_DDOT":0},{"OBJECT_NAME":"ONEWEB-0047","OBJECT_ID":"2020-008X","EPOCH":"2026-03-17T23:28:41.913696","MEAN_MOTION":13.10376173,"ECCENTRICITY":0.00020525,"INCLINATION":87.8791,"RA_OF_ASC_NODE":54.4179,"ARG_OF_PERICENTER":86.8252,"MEAN_ANOMALY":273.311,"EPHEMERIS_TYPE":0,"CLASSIFICATION_TYPE":"U","NORAD_CAT_ID":45152,"ELEMENT_SET_NO":999,"REV_AT_EPOCH":29625,"BSTAR":-0.00020362229,"MEAN_MOTION_DOT":-5.8e-7,"MEAN_MOTION_DDOT":0},{"OBJECT_NAME":"ONEWEB-0048","OBJECT_ID":"2020-008Y","EPOCH":"2026-03-17T23:21:31.248576","MEAN_MOTION":13.10375655,"ECCENTRICITY":0.00019466,"INCLINATION":87.8785,"RA_OF_ASC_NODE":54.446,"ARG_OF_PERICENTER":85.5605,"MEAN_ANOMALY":274.5745,"EPHEMERIS_TYPE":0,"CLASSIFICATION_TYPE":"U","NORAD_CAT_ID":45153,"ELEMENT_SET_NO":999,"REV_AT_EPOCH":29586,"BSTAR":-0.0010161701,"MEAN_MOTION_DOT":-3.42e-6,"MEAN_MOTION_DDOT":0},{"OBJECT_NAME":"ONEWEB-0049","OBJECT_ID":"2020-008Z","EPOCH":"2026-03-17T23:26:06.463680","MEAN_MOTION":13.10375413,"ECCENTRICITY":0.00016735,"INCLINATION":87.8787,"RA_OF_ASC_NODE":54.4332,"ARG_OF_PERICENTER":71.4794,"MEAN_ANOMALY":288.6515,"EPHEMERIS_TYPE":0,"CLASSIFICATION_TYPE":"U","NORAD_CAT_ID":45154,"ELEMENT_SET_NO":999,"REV_AT_EPOCH":29608,"BSTAR":-0.00057610479,"MEAN_MOTION_DOT":-1.88e-6,"MEAN_MOTION_DDOT":0},{"OBJECT_NAME":"ONEWEB-0051","OBJECT_ID":"2020-008AA","EPOCH":"2026-03-18T07:01:12.182304","MEAN_MOTION":13.11415623,"ECCENTRICITY":0.00018551,"INCLINATION":87.8884,"RA_OF_ASC_NODE":39.1343,"ARG_OF_PERICENTER":81.7798,"MEAN_ANOMALY":278.354,"EPHEMERIS_TYPE":0,"CLASSIFICATION_TYPE":"U","NORAD_CAT_ID":45155,"ELEMENT_SET_NO":999,"REV_AT_EPOCH":29917,"BSTAR":-0.00097955391,"MEAN_MOTION_DOT":-3.34e-6,"MEAN_MOTION_DDOT":0},{"OBJECT_NAME":"ONEWEB-0052","OBJECT_ID":"2020-008AB","EPOCH":"2026-03-17T23:31:59.700576","MEAN_MOTION":13.09867344,"ECCENTRICITY":0.00010709,"INCLINATION":87.8802,"RA_OF_ASC_NODE":54.4057,"ARG_OF_PERICENTER":75.8461,"MEAN_ANOMALY":284.2785,"EPHEMERIS_TYPE":0,"CLASSIFICATION_TYPE":"U","NORAD_CAT_ID":45156,"ELEMENT_SET_NO":999,"REV_AT_EPOCH":29599,"BSTAR":-0.0057726511,"MEAN_MOTION_DOT":-1.987e-5,"MEAN_MOTION_DDOT":0},{"OBJECT_NAME":"ONEWEB-0053","OBJECT_ID":"2020-008AC","EPOCH":"2026-03-17T22:52:49.993824","MEAN_MOTION":13.10372002,"ECCENTRICITY":0.00013447,"INCLINATION":87.8781,"RA_OF_ASC_NODE":54.447,"ARG_OF_PERICENTER":82.4856,"MEAN_ANOMALY":277.6425,"EPHEMERIS_TYPE":0,"CLASSIFICATION_TYPE":"U","NORAD_CAT_ID":45157,"ELEMENT_SET_NO":999,"REV_AT_EPOCH":29596,"BSTAR":-0.0016461564,"MEAN_MOTION_DOT":-5.62e-6,"MEAN_MOTION_DDOT":0},{"OBJECT_NAME":"ONEWEB-0054","OBJECT_ID":"2020-008AD","EPOCH":"2026-03-18T07:02:52.286208","MEAN_MOTION":13.10375689,"ECCENTRICITY":0.00018649,"INCLINATION":87.8799,"RA_OF_ASC_NODE":54.3542,"ARG_OF_PERICENTER":81.1857,"MEAN_ANOMALY":278.9481,"EPHEMERIS_TYPE":0,"CLASSIFICATION_TYPE":"U","NORAD_CAT_ID":45158,"ELEMENT_SET_NO":999,"REV_AT_EPOCH":29612,"BSTAR":0.00081852519,"MEAN_MOTION_DOT":2.98e-6,"MEAN_MOTION_DDOT":0},{"OBJECT_NAME":"ONEWEB-0056","OBJECT_ID":"2020-008AE","EPOCH":"2026-03-18T04:45:24.289056","MEAN_MOTION":13.10374632,"ECCENTRICITY":0.00019006,"INCLINATION":87.8795,"RA_OF_ASC_NODE":54.3735,"ARG_OF_PERICENTER":78.0954,"MEAN_ANOMALY":282.0387,"EPHEMERIS_TYPE":0,"CLASSIFICATION_TYPE":"U","NORAD_CAT_ID":45159,"ELEMENT_SET_NO":999,"REV_AT_EPOCH":29626,"BSTAR":-0.0016382138,"MEAN_MOTION_DOT":-5.59e-6,"MEAN_MOTION_DDOT":0}]
